[{"OBJECT_NAME":"NUSAT-50 (NANCY ROMAN)","OBJECT_ID":"2024-149AB","EPOCH":"2026-03-09T19:15:16.765632","MEAN_MOTION":15.29713355,"ECCENTRICITY":0.00025229,"INCLINATION":97.3817,"RA_OF_ASC_NODE":150.7693,"ARG_OF_PERICENTER":238.0469,"MEAN_ANOMALY":122.0527,"EPHEMERIS_TYPE":0,"CLASSIFICATION_TYPE":"U","NORAD_CAT_ID":60493,"ELEMENT_SET_NO":999,"REV_AT_EPOCH":8693,"BSTAR":0.0004225155,"MEAN_MOTION_DOT":0.00012094,"MEAN_MOTION_DDOT":0},{"OBJECT_NAME":"STARLINK-36109","OBJECT_ID":"2025-286U","EPOCH":"2026-03-09T23:14:42.804672","MEAN_MOTION":15.3021639,"ECCENTRICITY":0.0001592,"INCLINATION":53.1605,"RA_OF_ASC_NODE":356.8575,"ARG_OF_PERICENTER":118.9935,"MEAN_ANOMALY":241.1226,"EPHEMERIS_TYPE":0,"CLASSIFICATION_TYPE":"U","NORAD_CAT_ID":66943,"ELEMENT_SET_NO":999,"REV_AT_EPOCH":1539,"BSTAR":0.00097796483,"MEAN_MOTION_DOT":0.00028732,"MEAN_MOTION_DDOT":0}]
